STARLINK-6258           
1 56413U 23061AR  26067.34670802  .00001013  00000+0  90067-4 0  9992
2 56413  43.0037 191.6770 0001454 272.9547  87.1129 15.02538950156704
EINSTEIN PROBE          
1 58753U 24007A   26068.60284448  .00004372  00000+0  31977-3 0  9994
2 58753  28.9980 140.9090 0009522 248.3814 111.5770 15.01336938118581
